{"type": "FeatureCollection", "features": [ {"type": "Feature", "properties": {"norad_id": 40115, "name": "WORLDVIEW-3 (WV-3)", "group": "resource", "lat": -11.661009987160273, "lon": -124.5397852957095, "alt_km": 613.2220535725382, "timestamp": "2025-12-10T18:56:59.719039+00:00", "meta": {"OBJECT_NAME": "WORLDVIEW-3 (WV-3)", "OBJECT_ID": "2014-048A", "EPOCH": "2025-12-10T11:37:24.150720", "MEAN_MOTION": 14.85502724, "ECCENTRICITY": 0.0004572, "INCLINATION": 97.8618, "RA_OF_ASC_NODE": 56.7929, "ARG_OF_PERICENTER": 192.3918, "MEAN_ANOMALY": 167.7185, "EPHEMERIS_TYPE": 0, "CLASSIFICATION_TYPE": "U", "NORAD_CAT_ID": 40115, "ELEMENT_SET_NO": 999, "REV_AT_EPOCH": 61390, "BSTAR": 0.0002197, "MEAN_MOTION_DOT": 1.843e-05, "MEAN_MOTION_DDOT": 0}, "tle": {"line1": "1 40115U 14048A   25344.48430730  .00001843  00000+0  21970-3 0  9992", "line2": "2 40115  97.8618  56.7929 0004572 192.3918 167.7185 14.85502724613903"}}, "geometry": {"type": "Point", "coordinates": [-124.5397852957095, -11.661009987160273]}}, {"type": "Feature", "properties": {"norad_id": 40118, "name": "GAOFEN-2", "group": "resource", "lat": 42.6813114111939, "lon": 36.46636682273668, "alt_km": 622.35359820738, "timestamp": "2025-12-10T18:56:59.719049+00:00", "meta": {"OBJECT_NAME": "GAOFEN-2", "OBJECT_ID": "2014-049A", "EPOCH": "2025-12-10T12:16:03.355680", "MEAN_MOTION": 14.80601169, "ECCENTRICITY": 0.0008442, "INCLINATION": 98.0382, "RA_OF_ASC_NODE": 43.6754, "ARG_OF_PERICENTER": 118.7844, "MEAN_ANOMALY": 241.4217, "EPHEMERIS_TYPE": 0, "CLASSIFICATION_TYPE": "U", "NORAD_CAT_ID": 40118, "ELEMENT_SET_NO": 999, "REV_AT_EPOCH": 61131, "BSTAR": 0.00013644, "MEAN_MOTION_DOT": 9.94e-06, "MEAN_MOTION_DDOT": 0}, "tle": {"line1": "1 40118U 14049A   25344.51114995  .00000994  00000+0  13644-3 0  9997", "line2": "2 40118  98.0382  43.6754 0008442 118.7844 241.4217 14.80601169611315"}}, "geometry": {"type": "Point", "coordinates": [36.46636682273668, 42.6813114111939]}}, {"type": "Feature", "properties": {"norad_id": 40143, "name": "YAOGAN-21", "group": "resource", "lat": 64.21480051861967, "lon": 13.070460973646247, "alt_km": 482.10031467542194, "timestamp": "2025-12-10T18:56:59.719059+00:00", "meta": {"OBJECT_NAME": "YAOGAN-21", "OBJECT_ID": "2014-053A", "EPOCH": "2025-12-10T12:21:38.598048", "MEAN_MOTION": 15.2364388, "ECCENTRICITY": 0.000993, "INCLINATION": 97.1754, "RA_OF_ASC_NODE": 27.924, "ARG_OF_PERICENTER": 48.6437, "MEAN_ANOMALY": 311.5653, "EPHEMERIS_TYPE": 0, "CLASSIFICATION_TYPE": "U", "NORAD_CAT_ID": 40143, "ELEMENT_SET_NO": 999, "REV_AT_EPOCH": 62620, "BSTAR": 0.00058094, "MEAN_MOTION_DOT": 0.00013888, "MEAN_MOTION_DDOT": 0}, "tle": {"line1": "1 40143U 14053A   25344.51503007  .00013888  00000+0  58094-3 0  9990", "line2": "2 40143  97.1754  27.9240 0009930  48.6437 311.5653 15.23643880626204"}}, "geometry": {"type": "Point", "coordinates": [13.070460973646247, 64.21480051861967]}}, {"type": "Feature", "properties": {"norad_id": 40275, "name": "YAOGAN-22", "group": "resource", "lat": -76.06901336156872, "lon": 178.11025027161224, "alt_km": 1205.042885286006, "timestamp": "2025-12-10T18:56:59.719069+00:00", "meta": {"OBJECT_NAME": "YAOGAN-22", "OBJECT_ID": "2014-063A", "EPOCH": "2025-12-10T08:24:35.604576", "MEAN_MOTION": 13.1552254, "ECCENTRICITY": 0.0005945, "INCLINATION": 100.7419, "RA_OF_ASC_NODE": 127.7362, "ARG_OF_PERICENTER": 254.178, "MEAN_ANOMALY": 105.8676, "EPHEMERIS_TYPE": 0, "CLASSIFICATION_TYPE": "U", "NORAD_CAT_ID": 40275, "ELEMENT_SET_NO": 999, "REV_AT_EPOCH": 53498, "BSTAR": 0.00010244, "MEAN_MOTION_DOT": -8e-08, "MEAN_MOTION_DDOT": 0}, "tle": {"line1": "1 40275U 14063A   25344.35041209 -.00000008  00000+0  10244-3 0  9996", "line2": "2 40275 100.7419 127.7362 0005945 254.1780 105.8676 13.15522540534980"}}, "geometry": {"type": "Point", "coordinates": [178.11025027161224, -76.06901336156872]}}, {"type": "Feature", "properties": {"norad_id": 40298, "name": "ASNARO", "group": "resource", "lat": 37.14074228227609, "lon": -113.59450027582643, "alt_km": 501.372722776272, "timestamp": "2025-12-10T18:56:59.719079+00:00", "meta": {"OBJECT_NAME": "ASNARO", "OBJECT_ID": "2014-070A", "EPOCH": "2025-12-10T12:00:11.920608", "MEAN_MOTION": 15.1941956, "ECCENTRICITY": 0.0005426, "INCLINATION": 97.3645, "RA_OF_ASC_NODE": 60.5014, "ARG_OF_PERICENTER": 127.7803, "MEAN_ANOMALY": 232.3924, "EPHEMERIS_TYPE": 0, "CLASSIFICATION_TYPE": "U", "NORAD_CAT_ID": 40298, "ELEMENT_SET_NO": 999, "REV_AT_EPOCH": 61535, "BSTAR": 0.00086, "MEAN_MOTION_DOT": 0.00018185, "MEAN_MOTION_DDOT": 0}, "tle": {"line1": "1 40298U 14070A   25344.50013797  .00018185  00000+0  86000-3 0  9994", "line2": "2 40298  97.3645  60.5014 0005426 127.7803 232.3924 15.19419560615356"}}, "geometry": {"type": "Point", "coordinates": [-113.59450027582643, 37.14074228227609]}}, {"type": "Feature", "properties": {"norad_id": 40310, "name": "YAOGAN-24", "group": "resource", "lat": 57.02307392126276, "lon": 103.15665789903225, "alt_km": 635.2030854075074, "timestamp": "2025-12-10T18:56:59.719089+00:00", "meta": {"OBJECT_NAME": "YAOGAN-24", "OBJECT_ID": "2014-072A", "EPOCH": "2025-12-10T12:10:51.087072", "MEAN_MOTION": 14.76168245, "ECCENTRICITY": 0.0014631, "INCLINATION": 98.1225, "RA_OF_ASC_NODE": 115.5889, "ARG_OF_PERICENTER": 144.6796, "MEAN_ANOMALY": 215.5385, "EPHEMERIS_TYPE": 0, "CLASSIFICATION_TYPE": "U", "NORAD_CAT_ID": 40310, "ELEMENT_SET_NO": 999, "REV_AT_EPOCH": 59588, "BSTAR": 0.00017358, "MEAN_MOTION_DOT": 1.149e-05, "MEAN_MOTION_DDOT": 0}, "tle": {"line1": "1 40310U 14072A   25344.50753573  .00001149  00000+0  17358-3 0  9996", "line2": "2 40310  98.1225 115.5889 0014631 144.6796 215.5385 14.76168245595884"}}, "geometry": {"type": "Point", "coordinates": [103.15665789903225, 57.02307392126276]}}, {"type": "Feature", "properties": {"norad_id": 40336, "name": "CBERS 4", "group": "resource", "lat": 79.54556566051944, "lon": -9.698241306775465, "alt_km": 764.960703572503, "timestamp": "2025-12-10T18:56:59.719099+00:00", "meta": {"OBJECT_NAME": "CBERS 4", "OBJECT_ID": "2014-079A", "EPOCH": "2025-12-10T10:11:50.920224", "MEAN_MOTION": 14.35517122, "ECCENTRICITY": 0.0001606, "INCLINATION": 98.3307, "RA_OF_ASC_NODE": 42.5207, "ARG_OF_PERICENTER": 113.8855, "MEAN_ANOMALY": 246.25, "EPHEMERIS_TYPE": 0, "CLASSIFICATION_TYPE": "U", "NORAD_CAT_ID": 40336, "ELEMENT_SET_NO": 999, "REV_AT_EPOCH": 57687, "BSTAR": 0.00017713, "MEAN_MOTION_DOT": 4.68e-06, "MEAN_MOTION_DDOT": 0}, "tle": {"line1": "1 40336U 14079A   25344.42489491  .00000468  00000+0  17713-3 0  9995", "line2": "2 40336  98.3307  42.5207 0001606 113.8855 246.2500 14.35517122576875"}}, "geometry": {"type": "Point", "coordinates": [-9.698241306775465, 79.54556566051944]}}, {"type": "Feature", "properties": {"norad_id": 40362, "name": "YAOGAN-26", "group": "resource", "lat": 30.329939061225566, "lon": -18.628731487309107, "alt_km": 442.61388491756406, "timestamp": "2025-12-10T18:56:59.719110+00:00", "meta": {"OBJECT_NAME": "YAOGAN-26", "OBJECT_ID": "2014-088A", "EPOCH": "2025-12-10T12:34:35.042016", "MEAN_MOTION": 15.39165194, "ECCENTRICITY": 0.0006559, "INCLINATION": 97.0651, "RA_OF_ASC_NODE": 345.2763, "ARG_OF_PERICENTER": 36.0878, "MEAN_ANOMALY": 324.081, "EPHEMERIS_TYPE": 0, "CLASSIFICATION_TYPE": "U", "NORAD_CAT_ID": 40362, "ELEMENT_SET_NO": 999, "REV_AT_EPOCH": 60860, "BSTAR": 0.00039747, "MEAN_MOTION_DOT": 0.00015375, "MEAN_MOTION_DDOT": 0}, "tle": {"line1": "1 40362U 14088A   25344.52401669  .00015375  00000+0  39747-3 0  9990", "line2": "2 40362  97.0651 345.2763 0006559  36.0878 324.0810 15.39165194608604"}}, "geometry": {"type": "Point", "coordinates": [-18.628731487309107, 30.329939061225566]}}, {"type": "Feature", "properties": {"norad_id": 40376, "name": "SMAP", "group": "resource", "lat": 81.73946234878245, "lon": -110.5518509450316, "alt_km": 674.097299032469, "timestamp": "2025-12-10T18:56:59.719120+00:00", "meta": {"OBJECT_NAME": "SMAP", "OBJECT_ID": "2015-003A", "EPOCH": "2025-12-10T11:58:10.064640", "MEAN_MOTION": 14.63340562, "ECCENTRICITY": 0.0001202, "INCLINATION": 98.1291, "RA_OF_ASC_NODE": 349.2548, "ARG_OF_PERICENTER": 88.7166, "MEAN_ANOMALY": 271.4174, "EPHEMERIS_TYPE": 0, "CLASSIFICATION_TYPE": "U", "NORAD_CAT_ID": 40376, "ELEMENT_SET_NO": 999, "REV_AT_EPOCH": 58002, "BSTAR": 0.0001877, "MEAN_MOTION_DOT": 9.22e-06, "MEAN_MOTION_DDOT": 0}, "tle": {"line1": "1 40376U 15003A   25344.49872760  .00000922  00000+0  18770-3 0  9998", "line2": "2 40376  98.1291 349.2548 0001202  88.7166 271.4174 14.63340562580023"}}, "geometry": {"type": "Point", "coordinates": [-110.5518509450316, 81.73946234878245]}}, {"type": "Feature", "properties": {"norad_id": 40536, "name": "KOMPSAT-3A", "group": "resource", "lat": -60.565733418542024, "lon": -27.136503853602726, "alt_km": 445.12130835702555, "timestamp": "2025-12-10T18:56:59.719130+00:00", "meta": {"OBJECT_NAME": "KOMPSAT-3A", "OBJECT_ID": "2015-014A", "EPOCH": "2025-12-10T11:26:17.459808", "MEAN_MOTION": 15.4381226, "ECCENTRICITY": 0.0004676, "INCLINATION": 97.6792, "RA_OF_ASC_NODE": 318.698, "ARG_OF_PERICENTER": 131.7964, "MEAN_ANOMALY": 228.3683, "EPHEMERIS_TYPE": 0, "CLASSIFICATION_TYPE": "U", "NORAD_CAT_ID": 40536, "ELEMENT_SET_NO": 999, "REV_AT_EPOCH": 59260, "BSTAR": 0.00060154, "MEAN_MOTION_DOT": 0.0002722, "MEAN_MOTION_DDOT": 0}, "tle": {"line1": "1 40536U 15014A   25344.47659097  .00027220  00000+0  60154-3 0  9995", "line2": "2 40536  97.6792 318.6980 0004676 131.7964 228.3683 15.43812260592605"}}, "geometry": {"type": "Point", "coordinates": [-27.136503853602726, -60.565733418542024]}}]}